STARLINK-6038           
1 56317U 23058A   23142.77470032 -.00207256  00000+0 -42780-2 0  9998
2 56317  97.6557 143.3398 0001239  69.4105 290.7277 15.46594060  4406
STARLINK-5954           
1 56318U 23058B   23142.51560241 -.00011568  00000+0 -22702-3 0  9995
2 56318  97.6557 143.0674 0003137  69.4809 290.6777 15.47104321  4368
STARLINK-6039           
1 56319U 23058C   23142.58007727 -.00019667  00000+0 -38803-3 0  9995
2 56319  97.6575 143.1379 0001717  65.2115 294.9313 15.47083214  4379
STARLINK-5988           
1 56320U 23058D   23142.58018410 -.00041418  00000+0 -82241-3 0  9992
2 56320  97.6560 143.1371 0001860  70.1372 290.0077 15.47052750  4382
STARLINK-5876           
1 56321U 23058E   23142.91667824 -.00898376  00000+0 -19543-1 0  9995
2 56321  97.6551 143.4943 0001447  93.0657 342.9534 15.46699294  1305
STARLINK-6033           
1 56322U 23058F   23142.58042701 -.00112204  00000+0 -22615-2 0  9994
2 56322  97.6560 143.1360 0002484  62.5872 297.5629 15.46920831  4372
STARLINK-6035           
1 56323U 23058G   23142.57973125  .00015264  00000+0  30233-3 0  9999
2 56323  97.6561 143.1378 0001069 101.0134 259.1235 15.47168925  4377
STARLINK-6034           
1 56324U 23058H   23142.57994702 -.00001349  00000+0 -24737-4 0  9998
2 56324  97.6560 143.1376 0001255  78.1500 281.9890 15.47132356  4372
STARLINK-5981           
1 56325U 23058J   23142.57930860  .00011351  00000+0  22547-3 0  9992
2 56325  97.6556 143.1381 0001248  96.2952 263.8439 15.47160921  4724
STARLINK-5980           
1 56326U 23058K   23142.51516115  .00013343  00000+0  26463-3 0  9994
2 56326  97.6553 143.0677 0000930 107.1127 253.0224 15.47162747  4363
STARLINK-5997           
1 56327U 23058L   23142.51431520  .00013755  00000+0  27271-3 0  9996
2 56327  97.6555 143.0696 0001885  92.8104 267.3361 15.47163740  4715
STARLINK-5992           
1 56328U 23058M   23142.57941539  .00011702  00000+0  23239-3 0  9999
2 56328  97.6551 143.1379 0001276 104.7188 255.4203 15.47160973  4729
STARLINK-5984           
1 56329U 23058N   23142.51442195  .00013601  00000+0  26972-3 0  9995
2 56329  97.6557 143.0701 0001758  89.6101 270.5349 15.47160874  4713
STARLINK-5967           
1 56330U 23058P   23142.57951993  .00012437  00000+0  24682-3 0  9996
2 56330  97.6554 143.1366 0001240 110.8889 249.2493 15.47163043  4721
STARLINK-5991           
1 56331U 23058Q   23142.57867385  .00009969  00000+0  19831-3 0  9994
2 56331  97.6559 143.1393 0002024 103.9233 256.2241 15.47157283  4722
STARLINK-5093           
1 56332U 23058R   23142.57920380  .00009599  00000+0  19102-3 0  9990
2 56332  97.6553 143.1381 0001743  97.4248 262.7199 15.47159226  4727
STARLINK-5553           
1 56333U 23058S   23142.57856647  .00011671  00000+0  23177-3 0  9996
2 56333  97.6553 143.1386 0001521 103.6184 256.5235 15.47161491  4725
STARLINK-5548           
1 56334U 23058T   23142.77291532  .00006994  00000+0  13975-3 0  9992
2 56334  97.6557 143.3439 0001190  98.6703 261.4681 15.47159178  4755
STARLINK-5559           
1 56335U 23058U   23142.57824826  .00012385  00000+0  24582-3 0  9996
2 56335  97.6555 143.1394 0001040  94.3114 265.8254 15.47161291  4725
STARLINK-5562           
1 56336U 23058V   23142.57877812  .00011805  00000+0  23439-3 0  9996
2 56336  97.6554 143.1386 0001180  98.9079 261.2304 15.47162008  4724
STARLINK-5561           
1 56337U 23058W   23142.57814222  .00006968  00000+0  13924-3 0  9995
2 56337  97.6549 143.1389 0001406 106.8587 253.2817 15.47157391  4725
STARLINK-5554           
1 56338U 23058X   23142.51378355  .00013224  00000+0  26231-3 0  9990
2 56338  97.6555 143.0707 0001042  94.6272 265.5096 15.47160980  4719
STARLINK-5552           
1 56339U 23058Y   23142.57793036  .00011779  00000+0  23390-3 0  9990
2 56339  97.6553 143.1399 0001141  93.3224 266.8156 15.47161248  4729
STARLINK-5540           
1 56340U 23058Z   23142.57835474  .00010683  00000+0  21236-3 0  9995
2 56340  97.6556 143.1392 0001111  98.9713 261.1662 15.47159505  4721
STARLINK-5543           
1 56341U 23058AA  23142.57771909  .00016659  00000+0  32976-3 0  9990
2 56341  97.6558 143.1407 0001021  87.5166 272.6200 15.47164810  4727
STARLINK-5955           
1 56342U 23058AB  23142.57803631  .00012249  00000+0  24313-3 0  9996
2 56342  97.6554 143.1393 0001112 107.0206 253.1165 15.47161799  4729
STARLINK-5976           
1 56343U 23058AC  23142.57750647  .00011176  00000+0  22204-3 0  9990
2 56343  97.6553 143.1398 0001353 100.8815 259.2586 15.47160490  4729
STARLINK-5974           
1 56344U 23058AD  23142.57782456  .00012641  00000+0  25084-3 0  9991
2 56344  97.6556 143.1400 0001138  99.3679 260.7699 15.47161606  4720
STARLINK-5979           
1 56345U 23058AE  23142.57729463  .00013475  00000+0  26723-3 0  9998
2 56345  97.6556 143.1413 0001121  93.5561 266.5816 15.47162602  4725
STARLINK-5837           
1 56346U 23058AF  23142.57761241  .00013596  00000+0  26961-3 0  9997
2 56346  97.6556 143.1406 0001149  91.5899 268.5481 15.47162782  4729
STARLINK-5829           
1 56347U 23058AG  23142.57718736  .00011848  00000+0  23525-3 0  9990
2 56347  97.6546 143.1408 0001136 101.5618 258.5759 15.47162328  4721
STARLINK-5888           
1 56348U 23058AH  23142.57739924  .00015237  00000+0  30181-3 0  9995
2 56348  97.6555 143.1406 0001131 105.5225 254.6149 15.47167861  4720
STARLINK-5887           
1 56349U 23058AJ  23142.57676484  .00014570  00000+0  28873-3 0  9991
2 56349  97.6557 143.1421 0001166  99.0500 261.0881 15.47163947  4727
STARLINK-5886           
1 56350U 23058AK  23142.57697640  .00013666  00000+0  27096-3 0  9991
2 56350  97.6552 143.1412 0001184  99.2036 260.9347 15.47163998  4721
STARLINK-5891           
1 56351U 23058AL  23142.57666017  .00008294  00000+0  16540-3 0  9999
2 56351  97.6555 143.1419 0001814  99.1555 260.9899 15.47149559  4726
STARLINK-5885           
1 56352U 23058AM  23142.57708267  .00010611  00000+0  21093-3 0  9999
2 56352  97.6555 143.1415 0001238  92.9948 267.1443 15.47160582  4723
STARLINK-5874           
1 56353U 23058AN  23142.57570416  .00011715  00000+0  23264-3 0  9991
2 56353  97.6554 143.1434 0001284  94.4460 265.6936 15.47160679  4728
STARLINK-5877           
1 56354U 23058AP  23142.57686995  .00013753  00000+0  27268-3 0  9994
2 56354  97.6554 143.1418 0001121  92.1870 267.9507 15.47163215  4729
STARLINK-5533           
1 56355U 23058AQ  23142.57623271  .00011625  00000+0  23086-3 0  9993
2 56355  97.6548 143.1425 0001182  97.1639 262.9744 15.47161631  4724
STARLINK-5535           
1 56356U 23058AR  23142.57644626  .00012006  00000+0  23836-3 0  9998
2 56356  97.6555 143.1425 0001194  93.2970 266.8415 15.47160836  4725
STARLINK-5538           
1 56357U 23058AS  23142.57634051  .00012511  00000+0  24829-3 0  9994
2 56357  97.6554 143.1427 0001254  99.1757 260.9634 15.47160850  4726
STARLINK-5482           
1 56358U 23058AT  23142.57657961 -.00071246  00000+0 -14233-2 0  9999
2 56358  97.6558 143.1421 0002008  96.7045 263.4432 15.47014859  4727
STARLINK-5551           
1 56359U 23058AU  23142.57602078  .00012720  00000+0  25239-3 0  9998
2 56359  97.6548 143.1415 0001213 102.2063 257.9321 15.47162306  4726
STARLINK-5549           
1 56360U 23058AV  23142.57612786  .00012392  00000+0  24595-3 0  9996
2 56360  97.6555 143.1429 0001247  99.6264 260.5126 15.47161566  4720
STARLINK-5550           
1 56361U 23058AW  23142.57581076  .00009347  00000+0  18607-3 0  9997
2 56361  97.6557 143.1438 0001225  89.7269 270.4120 15.47158694  4726
STARLINK-5972           
1 56362U 23058AX  23142.57591643  .00014842  00000+0  29409-3 0  9997
2 56362  97.6555 143.1432 0001187  94.5302 265.6082 15.47163690  4723
FALCON 9 DEB            
1 56363U 23058AY  23142.76601499  .00337815  46329-4  88374-3 0  9993
2 56363  97.6692 144.3882 0035266 156.9617 203.3248 15.93748426  4477
FALCON 9 DEB            
1 56364U 23058AZ  23142.50675584  .00340277  47291-4  87197-3 0  9999
2 56364  97.6679 144.1082 0033199 156.8426 203.4354 15.94259996  4438
FALCON 9 DEB            
1 56365U 23058BA  23142.73341587  .00438827  81609-4  95195-3 0  9995
2 56365  97.6616 144.4088 0034916 152.4722 207.8413 15.97167210  4465
FALCON 9 DEB            
1 56366U 23058BB  23142.73143442  .00399204  67182-4  87935-3 0  9994
2 56366  97.6621 144.4115 0034532 150.0715 210.2545 15.96919527  4462
2023-059A               
1 56367U 23059A   23138.85114913  .00000047  00000+0  94849-2 0  9991
2 56367   6.9917 354.1326 1652031 233.1021 110.6116  6.85020597  1464
2023-059B               
1 56368U 23059B   23138.76801162  .00000049  00000+0  11785-1 0  9990
2 56368   7.1748 354.0575 1662970 233.1321 110.4605  6.87562621  1474
2023-059C               
1 56369U 23059C   23142.77383225  .00000065  00000+0  88206-2 0  9993
2 56369   8.6051 348.1325 1880308 248.5413  90.4452  7.26703600  1738
VIASAT-3                
1 56370U 23060A   23142.82538094 -.00000183  00000+0  00000+0 0  9994
2 56370   0.0097 274.9715 0000492 185.5416 347.9378  1.00272901   204
ARCTURUS                
1 56371U 23060B   23142.66729785  .00000131  00000+0  00000+0 0  9998
2 56371   0.0435  24.1935 0001126  43.8172 249.3991  1.00279497   214
GS-1                    
1 56372U 23060C   23142.71965554 -.00000128  00000+0  00000+0 0  9998
2 56372   0.0889  66.6085 0008695  51.4560 120.9283  1.04511564   181
FALCON HEAVY R/B        
1 56373U 23060D   23142.86739437 -.00000081  00000+0  00000+0 0  9992
2 56373   0.0896  66.9793 0010047 161.5986  85.4069  1.04743900   221
STARLINK-6156           
1 56374U 23061A   23142.91667824 -.00887901  00000+0 -88245-2 0  9995
2 56374  42.9987 359.3371 0001323 270.8999 279.0798 15.67150410  1306
STARLINK-6158           
1 56375U 23061B   23142.91667824 -.00887258  00000+0 -88136-2 0  9990
2 56375  42.9988 359.3336 0001438 271.7739 279.4917 15.67160315  1300
STARLINK-6188           
